[{"id":"36590","name":"BEIDOU-2 G3","tle1":"1 36590U 10024A   26176.05754253 -.00000130  00000+0  00000+0 0  9996","tle2":"2 36590   4.5350  61.4911 0008080 354.6381 317.4712  1.00271083 58842"},{"id":"36592","name":"BADR-5","tle1":"1 36592U 10025A   26176.21850447  .00000164  00000+0  00000+0 0  9995","tle2":"2 36592   0.0465 154.3750 0004621  33.1675 195.0367  1.00279251 53292"},{"id":"36744","name":"COMS 1","tle1":"1 36744U 10032A   26175.82053308  .00000074  00000+0  00000+0 0  9999","tle2":"2 36744   4.8248  75.2690 0011867  12.6634 163.4218  0.99165519 51169"},{"id":"36745","name":"ARABSAT-5A","tle1":"1 36745U 10032B   26176.21850447  .00000163  00000+0  00000+0 0  9992","tle2":"2 36745   0.0671  50.1405 0005625  61.0839 271.2813  1.00271027 58727"},{"id":"36792","name":"ECHOSTAR 15","tle1":"1 36792U 10034A   26176.28753847  .00000009  00000+0  00000+0 0  9998","tle2":"2 36792   0.0111 358.6047 0002218  78.4446 181.0757  1.00271996 58402"},{"id":"36828","name":"BEIDOU-2 IGSO-1","tle1":"1 36828U 10036A   26175.90431008 -.00000048  00000+0  00000+0 0  9994","tle2":"2 36828  54.3046 162.8893 0059116 225.3958 317.8899  1.00270002 58172"},{"id":"36830","name":"NILESAT 201","tle1":"1 36830U 10037A   26176.24072698 -.00000048  00000+0  00000+0 0  9992","tle2":"2 36830   0.0398 150.0384 0005070 329.4030 233.6065  1.00271206 58452"},{"id":"36831","name":"RASCOM-QAF 1R","tle1":"1 36831U 10037B   26176.23516927  .00000028  00000+0  00000+0 0  9997","tle2":"2 36831   0.0167  61.5098 0006617  26.7774 272.6422  1.00271692 58386"},{"id":"36868","name":"AEHF-1 (USA 214)","tle1":"1 36868U 10039A   26175.81801973  .00000150  00000+0  00000+0 0  9996","tle2":"2 36868   8.2384  67.9563 0004229  11.1655 158.4174  1.00279243 53736"},{"id":"37185","name":"XM-5","tle1":"1 37185U 10053A   26176.28831848 -.00000013  00000+0  00000+0 0  9990","tle2":"2 37185   0.0622 272.2118 0002675 281.8919  67.9187  1.00270987 57562"},{"id":"37207","name":"BSAT-3B","tle1":"1 37207U 10056B   26175.00853659 -.00000343  00000+0  00000+0 0  9997","tle2":"2 37207   0.0777 247.4686 0001742 275.7432 221.8662  1.00271084 52167"},{"id":"37210","name":"BEIDOU-2 G4","tle1":"1 37210U 10057A   26175.55852006 -.00000107  00000+0  00000+0 0  9995","tle2":"2 37210   3.6659  68.9129 0004895 194.6419  10.2041  1.00271193 57362"},{"id":"37218","name":"SKYTERRA 1","tle1":"1 37218U 10061A   26176.14846159 -.00000113  00000+0  00000+0 0  9993","tle2":"2 37218   5.1421  50.8504 0002440  21.2697 153.2975  1.00272923 57274"},{"id":"37237","name":"HYLAS 1","tle1":"1 37237U 10065A   26175.02596269  .00000093  00000+0  00000+0 0  9994","tle2":"2 37237   5.6614  72.9389 0001052 336.6605 245.7390  1.00273914  6958"},{"id":"37238","name":"INTELSAT 17 (IS-17)","tle1":"1 37238U 10065B   26176.06711404  .00000008  00000+0  00000+0 0  9996","tle2":"2 37238   0.0401 151.1999 0002647 302.0290 270.1313  1.00270411 53326"},{"id":"37256","name":"BEIDOU-2 IGSO-2","tle1":"1 37256U 10068A   26175.67652892 -.00000223  00000+0  00000+0 0  9990","tle2":"2 37256  47.5326 271.7373 0056042 213.3814 139.3528  1.00281062 56867"},{"id":"37258","name":"EUTELSAT KA-SAT 9A","tle1":"1 37258U 10069A   26175.52843757  .00000069  00000+0  00000+0 0  9996","tle2":"2 37258   0.0603  12.0333 0003624 117.7194 342.1602  1.00267831 44085"},{"id":"37264","name":"HISPASAT 30W-5","tle1":"1 37264U 10070A   26176.27973391 -.00000206  00000+0  00000+0 0  9990","tle2":"2 37264   0.0388 144.9794 0005783 325.0377 234.0970  1.00270192 53264"},{"id":"37265","name":"KOREASAT 6","tle1":"1 37265U 10070B   26176.24419804  .00000000  00000+0  00000+0 0  9993","tle2":"2 37265   0.0248   6.8637 0002705  95.4748  58.8302  1.00270451 56850"},{"id":"37384","name":"BEIDOU-2 IGSO-3","tle1":"1 37384U 11013A   26174.55036299 -.00000196  00000+0  00000+0 0  9995","tle2":"2 37384  62.4163  40.0898 0034966 184.1575 353.0787  1.00266402 55720"},{"id":"37392","name":"INTELSAT 28 (IS-28)","tle1":"1 37392U 11016A   26176.24898653 -.00000217  00000+0  00000+0 0  9999","tle2":"2 37392   1.8273  82.5340 0003975  12.0608 236.6966  1.00270611 53363"},{"id":"37393","name":"YAHSAT 1A","tle1":"1 37393U 11016B   26175.39461995  .00000000  00000+0  00000+0 0  9999","tle2":"2 37393   0.0228  26.7718 0003514  76.1217   4.2023  1.00268785 42483"},{"id":"37481","name":"SBIRS GEO-1 (USA 230)","tle1":"1 37481U 11019A   26175.82226641  .00000105  00000+0  00000+0 0  9991","tle2":"2 37481   4.5523  53.1198 0001955  32.5724 175.0949  1.00272420 55478"},{"id":"37602","name":"TELSTAR 14R","tle1":"1 37602U 11021A   26176.29857619 -.00000270  00000+0  00000+0 0  9990","tle2":"2 37602   0.0397  79.8303 0002428 347.6238 250.4819  1.00272066 55911"},{"id":"37605","name":"GSAT-8","tle1":"1 37605U 11022A   26176.17940738  .00000092  00000+0  00000+0 0  9997","tle2":"2 37605   2.1520  81.7360 0001691 187.7973 123.4401  1.00272388 53292"},{"id":"37606","name":"ST-2","tle1":"1 37606U 11022B   26176.16919925 -.00000202  00000+0  00000+0 0  9995","tle2":"2 37606   0.0177 318.6218 0001633 132.2194 331.3730  1.00272911 55354"},{"id":"37677","name":"ZHONGXING-10","tle1":"1 37677U 11026A   26176.13725274 -.00000180  00000+0  00000+0 0  9991","tle2":"2 37677   1.0683  84.1306 0003665   3.8954 320.1734  1.00273103 55075"},{"id":"37748","name":"SES-3","tle1":"1 37748U 11035A   26175.93428808 -.00000094  00000+0  00000+0 0  9994","tle2":"2 37748   1.3472  83.0168 0002612   4.9457  58.4628  1.00272076 54674"},{"id":"37749","name":"KAZSAT-2","tle1":"1 37749U 11035B   26175.40145023 -.00000190  00000+0  00000+0 0  9999","tle2":"2 37749   0.0112 260.5984 0001660 248.5858 354.4025  1.00270733 53478"},{"id":"37763","name":"BEIDOU-2 IGSO-4","tle1":"1 37763U 11038A   26175.91018918  .00000035  00000+0  00000+0 0  9993","tle2":"2 37763  54.6027 165.6034 0159599 231.4937 297.3376  1.00283829 54722"},{"id":"37775","name":"ASTRA 1N","tle1":"1 37775U 11041A   26174.93243215  .00000126  00000+0  00000+0 0  9992","tle2":"2 37775   0.0769  33.8693 0006561  68.6280 164.4560  1.00271449 44599"},{"id":"37776","name":"BSAT-3C (JCSAT-110R)","tle1":"1 37776U 11041B   26175.69655987 -.00000342  00000+0  00000+0 0  9991","tle2":"2 37776   0.0148   8.5833 0000223 141.3259 123.6475  1.00271258 50542"}]