OBJECT_NAME,OBJECT_ID,EPOCH,MEAN_MOTION,ECCENTRICITY,INCLINATION,RA_OF_ASC_NODE,ARG_OF_PERICENTER,MEAN_ANOMALY,EPHEMERIS_TYPE,CLASSIFICATION_TYPE,NORAD_CAT_ID,ELEMENT_SET_NO,REV_AT_EPOCH,BSTAR,MEAN_MOTION_DOT,MEAN_MOTION_DDOT
BEIDOU-2 G3,2010-024A,2026-06-25T01:22:51.674592,1.00271083,.00080804,4.5350,61.4911,354.6381,317.4712,0,U,36590,999,5884,0,-.13E-5,0
BADR-5,2010-025A,2026-06-25T05:14:38.786208,1.00279251,.00046211,0.0465,154.3750,33.1675,195.0367,0,U,36592,999,5329,0,.164E-5,0
COMS 1,2010-032A,2026-06-24T19:41:34.058112,0.99165519,.00118674,4.8248,75.2690,12.6634,163.4218,0,U,36744,999,5116,0,.74E-6,0
ARABSAT-5A,2010-032B,2026-06-25T05:14:38.786208,1.00271027,.0005625,0.0671,50.1405,61.0839,271.2813,0,U,36745,999,5872,0,.163E-5,0
ECHOSTAR 15,2010-034A,2026-06-25T06:54:03.323808,1.00271996,.00022185,0.0111,358.6047,78.4446,181.0757,0,U,36792,999,5840,0,.9E-7,0
BEIDOU-2 IGSO-1,2010-036A,2026-06-24T21:42:12.390912,1.00270002,.00591165,54.3046,162.8893,225.3958,317.8899,0,U,36828,999,5817,0,-.48E-6,0
NILESAT 201,2010-037A,2026-06-25T05:46:38.811072,1.00271206,.00050705,0.0398,150.0384,329.4030,233.6065,0,U,36830,999,5845,0,-.48E-6,0
RASCOM-QAF 1R,2010-037B,2026-06-25T05:38:38.624928,1.00271692,.00066174,0.0167,61.5098,26.7774,272.6422,0,U,36831,999,5838,0,.28E-6,0
AEHF-1 (USA 214),2010-039A,2026-06-24T19:37:56.904672,1.00279243,.00042294,8.2384,67.9563,11.1655,158.4174,0,U,36868,999,5373,0,.15E-5,0
XM-5,2010-053A,2026-06-25T06:55:10.716672,1.00270987,.00026753,0.0622,272.2118,281.8919,67.9187,0,U,37185,999,5756,0,-.13E-6,0
BSAT-3B,2010-056B,2026-06-24T00:12:17.561376,1.00271084,.00017422,0.0777,247.4686,275.7432,221.8662,0,U,37207,999,5216,0,-.343E-5,0
BEIDOU-2 G4,2010-057A,2026-06-24T13:24:16.133184,1.00271193,.00048959,3.6659,68.9129,194.6419,10.2041,0,U,37210,999,5736,0,-.107E-5,0
SKYTERRA 1,2010-061A,2026-06-25T03:33:47.081376,1.00272923,.00024403,5.1421,50.8504,21.2697,153.2975,0,U,37218,999,5727,0,-.113E-5,0
HYLAS 1,2010-065A,2026-06-24T00:37:23.176416,1.00273914,.00010524,5.6614,72.9389,336.6605,245.7390,0,U,37237,999,695,0,.93E-6,0
INTELSAT 17 (IS-17),2010-065B,2026-06-25T01:36:38.653056,1.00270411,.00026478,0.0401,151.1999,302.0290,270.1313,0,U,37238,999,5332,0,.8E-7,0
BEIDOU-2 IGSO-2,2010-068A,2026-06-24T16:14:12.098688,1.00281062,.00560425,47.5326,271.7373,213.3814,139.3528,0,U,37256,999,5686,0,-.223E-5,0
EUTELSAT KA-SAT 9A,2010-069A,2026-06-24T12:40:57.006048,1.00267831,.00036247,0.0603,12.0333,117.7194,342.1602,0,U,37258,999,4408,0,.69E-6,0
HISPASAT 30W-5,2010-070A,2026-06-25T06:42:49.009824,1.00270192,.00057837,0.0388,144.9794,325.0377,234.0970,0,U,37264,999,5326,0,-.206E-5,0
KOREASAT 6,2010-070B,2026-06-25T05:51:38.710656,1.00270451,.00027058,0.0248,6.8637,95.4748,58.8302,0,U,37265,999,5685,0,0,0
BEIDOU-2 IGSO-3,2011-013A,2026-06-23T13:12:31.362336,1.00266402,.00349669,62.4163,40.0898,184.1575,353.0787,0,U,37384,999,5572,0,-.196E-5,0
INTELSAT 28 (IS-28),2011-016A,2026-06-25T05:58:32.436192,1.00270611,.00039759,1.8273,82.5340,12.0608,236.6966,0,U,37392,999,5336,0,-.217E-5,0
YAHSAT 1A,2011-016B,2026-06-24T09:28:15.163680,1.00268785,.00035145,0.0228,26.7718,76.1217,4.2023,0,U,37393,999,4248,0,0,0
SBIRS GEO-1 (USA 230),2011-019A,2026-06-24T19:44:03.817824,1.00272420,.00019552,4.5523,53.1198,32.5724,175.0949,0,U,37481,999,5547,0,.105E-5,0
TELSTAR 14R,2011-021A,2026-06-25T07:09:56.982816,1.00272066,.00024282,0.0397,79.8303,347.6238,250.4819,0,U,37602,999,5591,0,-.27E-5,0
GSAT-8,2011-022A,2026-06-25T04:18:20.797632,1.00272388,.00016914,2.1520,81.7360,187.7973,123.4401,0,U,37605,999,5329,0,.92E-6,0
ST-2,2011-022B,2026-06-25T04:03:38.815200,1.00272911,.00016337,0.0177,318.6218,132.2194,331.3730,0,U,37606,999,5535,0,-.202E-5,0
ZHONGXING-10,2011-026A,2026-06-25T03:17:38.636736,1.00273103,.00036656,1.0683,84.1306,3.8954,320.1734,0,U,37677,999,5507,0,-.18E-5,0
SES-3,2011-035A,2026-06-24T22:25:22.490112,1.00272076,.00026125,1.3472,83.0168,4.9457,58.4628,0,U,37748,999,5467,0,-.94E-6,0
KAZSAT-2,2011-035B,2026-06-24T09:38:05.299872,1.00270733,.00016604,0.0112,260.5984,248.5858,354.4025,0,U,37749,999,5347,0,-.19E-5,0
BEIDOU-2 IGSO-4,2011-038A,2026-06-24T21:50:40.345152,1.00283829,.0159599,54.6027,165.6034,231.4937,297.3376,0,U,37763,999,5472,0,.35E-6,0
ASTRA 1N,2011-041A,2026-06-23T22:22:42.137760,1.00271449,.0006561,0.0769,33.8693,68.6280,164.4560,0,U,37775,999,4459,0,.126E-5,0
BSAT-3C (JCSAT-110R),2011-041B,2026-06-24T16:43:02.772768,1.00271258,.00002239,0.0148,8.5833,141.3259,123.6475,0,U,37776,999,5054,0,-.342E-5,0
